STARLINK-1131           
1 45047U 20006D   26068.86193328 -.00000150  00000+0  70610-5 0  9995
2 45047  53.1594 280.1814 0001169  85.5645 274.5489 15.30189910336573
CUAVA-2                 
1 60527U 24149BM  26068.46955133  .00015400  00000+0  47570-3 0  9993
2 60527  97.3769 149.9859 0005669 291.2139  68.8497 15.33611708 86877
